*******************************************************************************
Ephemeris / WWW_USER Mon Mar 24 08:03:41 2025 Pasadena, USA      / Horizons    
*******************************************************************************
Target body name: (2018 US2)                      {source: JPL#14}
Center body name: Earth (399)                     {source: DE441}
Center-site name: Mauna Kea
*******************************************************************************
Start time      : A.D. 2018-Dec-31 04:03:00.0000 UT      
Stop  time      : A.D. 2018-Dec-31 16:46:00.0000 UT      
Step-size       : 1 minutes
*******************************************************************************
Target pole/equ : undefined
Target radii    : undefined                                                    
Center geodetic : 204.5278, 19.8260847, 4.21024   {E-lon(deg),Lat(deg),Alt(km)}
Center cylindric: 204.5278, 6006.35451, 2151.0229 {E-lon(deg),Dxy(km),Dz(km)}
Center pole/equ : ITRF93                          {East-longitude positive}
Center radii    : 6378.137, 6378.137, 6356.752 km {Equator_a, b, pole_c}       
Target primary  : Sun
Vis. interferer : MOON (R_eq= 1737.400) km        {source: DE441}
Rel. light bend : Sun                             {source: DE441}
Rel. lght bnd GM: 1.3271E+11 km^3/s^2                                          
Small-body perts: Yes                             {source: SB441-N16}
Atmos refraction: NO (AIRLESS)
RA format       : HMS
Time format     : CAL 
Calendar mode   : Mixed Julian/Gregorian
RTS-only print  : NO       
EOP file        : eop.250321.p250617                                           
EOP coverage    : DATA-BASED 1962-JAN-20 TO 2025-MAR-21. PREDICTS-> 2025-JUN-16
Units conversion: 1 au= 149597870.700 km, c= 299792.458 km/s, 1 day= 86400.0 s 
Table cut-offs 1: Elevation (-90.0deg=NO ),Airmass (>38.000=NO), Daylight (YES)
Table cut-offs 2: Solar elongation (  0.0,180.0=NO ),Local Hour Angle( 0.0=NO )
Table cut-offs 3: RA/DEC angular rate (     0.0=NO )                           
*******************************************************************************
Initial IAU76/J2000 heliocentric ecliptic osculating elements (au, days, deg.):
  EPOCH=  2458424.5 ! 2018-Nov-02.00 (TDB)         Residual RMS= .2503         
   EC= .6580934192644969   QR= 1.019516546973241   TP= 2458405.4003266119      
   OM= 225.9089147719754   W=  151.3321843630243   IN= 7.044798776353047       
  Equivalent ICRF heliocentric cartesian coordinates (au, au/d):
   X= 8.026033061055595E-01  Y= 6.200562709856074E-01  Z= 2.826199844552283E-01
  VX=-1.102263624249032E-02 VY= 1.780430100977025E-02 VZ= 4.937770740848229E-03
Asteroid physical parameters (km, seconds, rotational period in hours):        
   GM= n.a.                RAD= n.a.               ROTPER= n.a.                
   H= 24.88                G= .150                 B-V= n.a.                   
                           ALBEDO= n.a.            STYP= n.a.                  
*******************************************************************************
 Date__(UT)__HR:MN     R.A._________(ICRF)_________DEC
******************************************************
$$SOE
 2018-Dec-31 14:18  m  05 10 07.558633 +07 56 52.49542
 2018-Dec-31 14:19  m  05 10 07.572698 +07 56 52.72490
 2018-Dec-31 14:20  m  05 10 07.586786 +07 56 52.95437
 2018-Dec-31 14:21  m  05 10 07.600895 +07 56 53.18384
 2018-Dec-31 14:22  m  05 10 07.615026 +07 56 53.41331
 2018-Dec-31 14:23  m  05 10 07.629179 +07 56 53.64278
 2018-Dec-31 14:24  m  05 10 07.643353 +07 56 53.87225
 2018-Dec-31 14:25  m  05 10 07.657549 +07 56 54.10172
 2018-Dec-31 14:26  m  05 10 07.671767 +07 56 54.33119
 2018-Dec-31 14:27  m  05 10 07.686006 +07 56 54.56065
 2018-Dec-31 14:28  m  05 10 07.700267 +07 56 54.79012
 2018-Dec-31 14:29  m  05 10 07.714550 +07 56 55.01959
 2018-Dec-31 14:30  m  05 10 07.728855 +07 56 55.24905
 2018-Dec-31 14:31  m  05 10 07.743182 +07 56 55.47852
 2018-Dec-31 14:32  m  05 10 07.757530 +07 56 55.70799
 2018-Dec-31 14:33  m  05 10 07.771900 +07 56 55.93746
 2018-Dec-31 14:34  m  05 10 07.786292 +07 56 56.16693
 2018-Dec-31 14:35  m  05 10 07.800706 +07 56 56.39640
 2018-Dec-31 14:36  m  05 10 07.815142 +07 56 56.62587
 2018-Dec-31 14:37  m  05 10 07.829599 +07 56 56.85534
 2018-Dec-31 14:38  m  05 10 07.844079 +07 56 57.08482
 2018-Dec-31 14:39  m  05 10 07.858580 +07 56 57.31430
 2018-Dec-31 14:40  m  05 10 07.873103 +07 56 57.54378
 2018-Dec-31 14:41  m  05 10 07.887648 +07 56 57.77326
 2018-Dec-31 14:42  m  05 10 07.902215 +07 56 58.00274
 2018-Dec-31 14:43  m  05 10 07.916803 +07 56 58.23223
 2018-Dec-31 14:44  m  05 10 07.931414 +07 56 58.46172
 2018-Dec-31 14:45  m  05 10 07.946046 +07 56 58.69121
 2018-Dec-31 14:46  m  05 10 07.960700 +07 56 58.92071
 2018-Dec-31 14:47  m  05 10 07.975376 +07 56 59.15021
 2018-Dec-31 14:48  m  05 10 07.990074 +07 56 59.37971
 2018-Dec-31 14:49  m  05 10 08.004794 +07 56 59.60922
 2018-Dec-31 14:50  m  05 10 08.019536 +07 56 59.83873
 2018-Dec-31 14:51  m  05 10 08.034299 +07 57 00.06825
 2018-Dec-31 14:52  m  05 10 08.049085 +07 57 00.29777
 2018-Dec-31 14:53  m  05 10 08.063892 +07 57 00.52729
 2018-Dec-31 14:54  m  05 10 08.078721 +07 57 00.75682
 2018-Dec-31 14:55  m  05 10 08.093572 +07 57 00.98635
 2018-Dec-31 14:56  m  05 10 08.108445 +07 57 01.21589
 2018-Dec-31 14:57  m  05 10 08.123340 +07 57 01.44544
 2018-Dec-31 14:58  m  05 10 08.138257 +07 57 01.67499
 2018-Dec-31 14:59  m  05 10 08.153195 +07 57 01.90454
 2018-Dec-31 15:00  m  05 10 08.168156 +07 57 02.13411
 2018-Dec-31 15:01  m  05 10 08.183138 +07 57 02.36367
 2018-Dec-31 15:02  m  05 10 08.198142 +07 57 02.59325
 2018-Dec-31 15:03  m  05 10 08.213168 +07 57 02.82283
 2018-Dec-31 15:04  m  05 10 08.228216 +07 57 03.05242
 2018-Dec-31 15:05  m  05 10 08.243286 +07 57 03.28201
 2018-Dec-31 15:06  m  05 10 08.258377 +07 57 03.51161
 2018-Dec-31 15:07  m  05 10 08.273490 +07 57 03.74122
 2018-Dec-31 15:08  m  05 10 08.288625 +07 57 03.97084
 2018-Dec-31 15:09  m  05 10 08.303782 +07 57 04.20047
 2018-Dec-31 15:10  m  05 10 08.318961 +07 57 04.43010
 2018-Dec-31 15:11  m  05 10 08.334162 +07 57 04.65974
 2018-Dec-31 15:12  m  05 10 08.349384 +07 57 04.88939
 2018-Dec-31 15:13  m  05 10 08.364628 +07 57 05.11904
 2018-Dec-31 15:14  m  05 10 08.379894 +07 57 05.34871
 2018-Dec-31 15:15  m  05 10 08.395182 +07 57 05.57838
 2018-Dec-31 15:16  m  05 10 08.410491 +07 57 05.80807
 2018-Dec-31 15:17  s  05 10 08.425822 +07 57 06.03776
 2018-Dec-31 15:18  m  05 10 08.441175 +07 57 06.26746
 2018-Dec-31 15:19  m  05 10 08.456550 +07 57 06.49717
 2018-Dec-31 15:20  m  05 10 08.471946 +07 57 06.72689
 2018-Dec-31 15:21  m  05 10 08.487364 +07 57 06.95663
 2018-Dec-31 15:22  m  05 10 08.502804 +07 57 07.18637
 2018-Dec-31 15:23  m  05 10 08.518266 +07 57 07.41612
 2018-Dec-31 15:24  m  05 10 08.533749 +07 57 07.64588
 2018-Dec-31 15:25  m  05 10 08.549253 +07 57 07.87565
 2018-Dec-31 15:26  m  05 10 08.564780 +07 57 08.10544
 2018-Dec-31 15:27  m  05 10 08.580328 +07 57 08.33523
 2018-Dec-31 15:28  m  05 10 08.595897 +07 57 08.56504
 2018-Dec-31 15:29  m  05 10 08.611488 +07 57 08.79486
 2018-Dec-31 15:30  m  05 10 08.627101 +07 57 09.02469
 2018-Dec-31 15:31  m  05 10 08.642736 +07 57 09.25453
 2018-Dec-31 15:32  m  05 10 08.658391 +07 57 09.48438
 2018-Dec-31 15:33  m  05 10 08.674069 +07 57 09.71425
 2018-Dec-31 15:34  m  05 10 08.689768 +07 57 09.94413
 2018-Dec-31 15:35  m  05 10 08.705488 +07 57 10.17402
 2018-Dec-31 15:36  m  05 10 08.721230 +07 57 10.40392
 2018-Dec-31 15:37  m  05 10 08.736993 +07 57 10.63384
 2018-Dec-31 15:38 Am  05 10 08.752778 +07 57 10.86377
 2018-Dec-31 15:39 Am  05 10 08.768584 +07 57 11.09371
 2018-Dec-31 15:40 Am  05 10 08.784412 +07 57 11.32367
 2018-Dec-31 15:41 Am  05 10 08.800261 +07 57 11.55364
 2018-Dec-31 15:42 Am  05 10 08.816131 +07 57 11.78362
 2018-Dec-31 15:43 Am  05 10 08.832023 +07 57 12.01362
 2018-Dec-31 15:44 Am  05 10 08.847936 +07 57 12.24363
 2018-Dec-31 15:45 Am  05 10 08.863870 +07 57 12.47366
 2018-Dec-31 15:46 Am  05 10 08.879826 +07 57 12.70370
 2018-Dec-31 15:47 Am  05 10 08.895803 +07 57 12.93376
 2018-Dec-31 15:48 Am  05 10 08.911801 +07 57 13.16383
 2018-Dec-31 15:49 Am  05 10 08.927820 +07 57 13.39392
 2018-Dec-31 15:50 Am  05 10 08.943861 +07 57 13.62402
 2018-Dec-31 15:51 Am  05 10 08.959922 +07 57 13.85414
 2018-Dec-31 15:52 Am  05 10 08.976005 +07 57 14.08427
 2018-Dec-31 15:53 Am  05 10 08.992109 +07 57 14.31442
 2018-Dec-31 15:54 Am  05 10 09.008234 +07 57 14.54459
 2018-Dec-31 15:55 Am  05 10 09.024380 +07 57 14.77477
 2018-Dec-31 15:56 Am  05 10 09.040547 +07 57 15.00497
 2018-Dec-31 15:57 Am  05 10 09.056735 +07 57 15.23519
 2018-Dec-31 15:58 Am  05 10 09.072944 +07 57 15.46542
 2018-Dec-31 15:59 Am  05 10 09.089174 +07 57 15.69567
 2018-Dec-31 16:00 Am  05 10 09.105425 +07 57 15.92594
 2018-Dec-31 16:01 Am  05 10 09.121697 +07 57 16.15622
 2018-Dec-31 16:02 Am  05 10 09.137990 +07 57 16.38652
 2018-Dec-31 16:03 Am  05 10 09.154304 +07 57 16.61684
 2018-Dec-31 16:04 Am  05 10 09.170638 +07 57 16.84718
 2018-Dec-31 16:05 Am  05 10 09.186993 +07 57 17.07754
 2018-Dec-31 16:06 Nm  05 10 09.203369 +07 57 17.30791
 2018-Dec-31 16:07 Nm  05 10 09.219766 +07 57 17.53830
 2018-Dec-31 16:08 Nm  05 10 09.236184 +07 57 17.76871
 2018-Dec-31 16:09 Nm  05 10 09.252622 +07 57 17.99915
 2018-Dec-31 16:10 Nm  05 10 09.269080 +07 57 18.22959
 2018-Dec-31 16:11 Nm  05 10 09.285560 +07 57 18.46006
 2018-Dec-31 16:12 Nm  05 10 09.302060 +07 57 18.69055
 2018-Dec-31 16:13 Nm  05 10 09.318580 +07 57 18.92106
 2018-Dec-31 16:14 Nm  05 10 09.335121 +07 57 19.15159
 2018-Dec-31 16:15 Nm  05 10 09.351682 +07 57 19.38213
 2018-Dec-31 16:16 Nm  05 10 09.368264 +07 57 19.61270
 2018-Dec-31 16:17 Nm  05 10 09.384867 +07 57 19.84329
 2018-Dec-31 16:18 Nm  05 10 09.401489 +07 57 20.07390
 2018-Dec-31 16:19 Nm  05 10 09.418132 +07 57 20.30453
 2018-Dec-31 16:20 Nm  05 10 09.434796 +07 57 20.53518
